{
  "type": "FeatureCollection",
  "features": [
    {
      "type": "Feature",
      "properties": {
        "norad_id": 66594,
        "name": "STARLINK-36032",
        "group": "last-30-days",
        "lat": 41.21898108291504,
        "lon": -84.83125595707574,
        "alt_km": 408.752051307697,
        "timestamp": "2025-12-10T14:53:35.947045+00:00",
        "meta_object_name": "STARLINK-36032",
        "meta_object_id": "2025-270G",
        "meta_epoch": "2025-12-10T06:00:02.000160",
        "meta_mean_motion": 15.52660377,
        "meta_eccentricity": 0.00013138,
        "meta_inclination": 42.9998,
        "meta_ra_of_asc_node": 207.273,
        "meta_arg_of_pericenter": 259.7563,
        "meta_mean_anomaly": 262.9781,
        "meta_ephemeris_type": 0,
        "meta_classification_type": "U",
        "meta_norad_cat_id": 66594,
        "meta_element_set_no": 999,
        "meta_rev_at_epoch": 373,
        "meta_bstar": -0.038483912,
        "meta_mean_motion_dot": -0.02154744,
        "meta_mean_motion_ddot": 0,
        "tle_line1": "1 66594U 25270G   25344.25002315 -.02154744  00000+0 -38484-1 0  9998",
        "tle_line2": "2 66594  42.9998 207.2730 0001313 259.7563 262.9781 15.52660377  3739"
      },
      "geometry": {
        "type": "Point",
        "coordinates": [
          -84.83125595707574,
          41.21898108291504
        ]
      }
    },
    {
      "type": "Feature",
      "properties": {
        "norad_id": 66595,
        "name": "STARLINK-35711",
        "group": "last-30-days",
        "lat": 41.63914177836065,
        "lon": -82.33341798110494,
        "alt_km": 408.73027672819353,
        "timestamp": "2025-12-10T14:53:35.947056+00:00",
        "meta_object_name": "STARLINK-35711",
        "meta_object_id": "2025-270H",
        "meta_epoch": "2025-12-10T06:00:02.000160",
        "meta_mean_motion": 15.52697653,
        "meta_eccentricity": 0.00013067,
        "meta_inclination": 43,
        "meta_ra_of_asc_node": 207.2677,
        "meta_arg_of_pericenter": 249.0371,
        "meta_mean_anomaly": 275.6063,
        "meta_ephemeris_type": 0,
        "meta_classification_type": "U",
        "meta_norad_cat_id": 66595,
        "meta_element_set_no": 999,
        "meta_rev_at_epoch": 410,
        "meta_bstar": -0.039553857,
        "meta_mean_motion_dot": -0.02210242,
        "meta_mean_motion_ddot": 0,
        "tle_line1": "1 66595U 25270H   25344.25002315 -.02210242  00000+0 -39554-1 0  9994",
        "tle_line2": "2 66595  43.0000 207.2677 0001306 249.0371 275.6063 15.52697653  4100"
      },
      "geometry": {
        "type": "Point",
        "coordinates": [
          -82.33341798110494,
          41.63914177836065
        ]
      }
    },
    {
      "type": "Feature",
      "properties": {
        "norad_id": 66596,
        "name": "STARLINK-35811",
        "group": "last-30-days",
        "lat": 42.00270361256771,
        "lon": -79.81335046923449,
        "alt_km": 408.6420116027175,
        "timestamp": "2025-12-10T14:53:35.947065+00:00",
        "meta_object_name": "STARLINK-35811",
        "meta_object_id": "2025-270J",
        "meta_epoch": "2025-12-10T06:00:02.000160",
        "meta_mean_motion": 15.52659737,
        "meta_eccentricity": 0.00013235,
        "meta_inclination": 42.9998,
        "meta_ra_of_asc_node": 207.2631,
        "meta_arg_of_pericenter": 261.0062,
        "meta_mean_anomaly": 265.5632,
        "meta_ephemeris_type": 0,
        "meta_classification_type": "U",
        "meta_norad_cat_id": 66596,
        "meta_element_set_no": 999,
        "meta_rev_at_epoch": 410,
        "meta_bstar": -0.038460732,
        "meta_mean_motion_dot": -0.02153556,
        "meta_mean_motion_ddot": 0,
        "tle_line1": "1 66596U 25270J   25344.25002315 -.02153556  00000+0 -38461-1 0  9995",
        "tle_line2": "2 66596  42.9998 207.2631 0001323 261.0062 265.5632 15.52659737  4106"
      },
      "geometry": {
        "type": "Point",
        "coordinates": [
          -79.81335046923449,
          42.00270361256771
        ]
      }
    },
    {
      "type": "Feature",
      "properties": {
        "norad_id": 66597,
        "name": "STARLINK-35820",
        "group": "last-30-days",
        "lat": 42.31130215648147,
        "lon": -77.26080866559641,
        "alt_km": 408.5660875016092,
        "timestamp": "2025-12-10T14:53:35.947073+00:00",
        "meta_object_name": "STARLINK-35820",
        "meta_object_id": "2025-270K",
        "meta_epoch": "2025-12-10T06:00:02.000160",
        "meta_mean_motion": 15.52669613,
        "meta_eccentricity": 0.00012702,
        "meta_inclination": 42.9999,
        "meta_ra_of_asc_node": 207.2582,
        "meta_arg_of_pericenter": 257.2747,
        "meta_mean_anomaly": 271.2087,
        "meta_ephemeris_type": 0,
        "meta_classification_type": "U",
        "meta_norad_cat_id": 66597,
        "meta_element_set_no": 999,
        "meta_rev_at_epoch": 410,
        "meta_bstar": -0.03868456,
        "meta_mean_motion_dot": -0.02165299,
        "meta_mean_motion_ddot": 0,
        "tle_line1": "1 66597U 25270K   25344.25002315 -.02165299  00000+0 -38685-1 0  9991",
        "tle_line2": "2 66597  42.9999 207.2582 0001270 257.2747 271.2087 15.52669613  4103"
      },
      "geometry": {
        "type": "Point",
        "coordinates": [
          -77.26080866559641,
          42.31130215648147
        ]
      }
    },
    {
      "type": "Feature",
      "properties": {
        "norad_id": 66598,
        "name": "STARLINK-35981",
        "group": "last-30-days",
        "lat": 42.56292286302705,
        "lon": -74.68016854624166,
        "alt_km": 408.5803291142647,
        "timestamp": "2025-12-10T14:53:35.947083+00:00",
        "meta_object_name": "STARLINK-35981",
        "meta_object_id": "2025-270L",
        "meta_epoch": "2025-12-10T06:00:02.000160",
        "meta_mean_motion": 15.52716582,
        "meta_eccentricity": 0.00012863,
        "meta_inclination": 42.9999,
        "meta_ra_of_asc_node": 207.2531,
        "meta_arg_of_pericenter": 250.8639,
        "meta_mean_anomaly": 279.5244,
        "meta_ephemeris_type": 0,
        "meta_classification_type": "U",
        "meta_norad_cat_id": 66598,
        "meta_element_set_no": 999,
        "meta_rev_at_epoch": 384,
        "meta_bstar": -0.040039107,
        "meta_mean_motion_dot": -0.0223546,
        "meta_mean_motion_ddot": 0,
        "tle_line1": "1 66598U 25270L   25344.25002315 -.02235460  00000+0 -40039-1 0  9996",
        "tle_line2": "2 66598  42.9999 207.2531 0001286 250.8639 279.5244 15.52716582  3848"
      },
      "geometry": {
        "type": "Point",
        "coordinates": [
          -74.68016854624166,
          42.56292286302705
        ]
      }
    },
    {
      "type": "Feature",
      "properties": {
        "norad_id": 66599,
        "name": "STARLINK-35930",
        "group": "last-30-days",
        "lat": 42.75383376330753,
        "lon": -72.11250539505491,
        "alt_km": 408.69043988108024,
        "timestamp": "2025-12-10T14:53:35.947092+00:00",
        "meta_object_name": "STARLINK-35930",
        "meta_object_id": "2025-270M",
        "meta_epoch": "2025-12-10T06:00:02.000160",
        "meta_mean_motion": 15.52650187,
        "meta_eccentricity": 0.00015295,
        "meta_inclination": 42.9998,
        "meta_ra_of_asc_node": 207.2489,
        "meta_arg_of_pericenter": 257.8101,
        "meta_mean_anomaly": 274.512,
        "meta_ephemeris_type": 0,
        "meta_classification_type": "U",
        "meta_norad_cat_id": 66599,
        "meta_element_set_no": 999,
        "meta_rev_at_epoch": 400,
        "meta_bstar": -0.038412466,
        "meta_mean_motion_dot": -0.02150639,
        "meta_mean_motion_ddot": 0,
        "tle_line1": "1 66599U 25270M   25344.25002315 -.02150639  00000+0 -38412-1 0  9993",
        "tle_line2": "2 66599  42.9998 207.2489 0001529 257.8101 274.5120 15.52650187  4006"
      },
      "geometry": {
        "type": "Point",
        "coordinates": [
          -72.11250539505491,
          42.75383376330753
        ]
      }
    },
    {
      "type": "Feature",
      "properties": {
        "norad_id": 66600,
        "name": "STARLINK-35980",
        "group": "last-30-days",
        "lat": 42.88878467179799,
        "lon": -69.4920433704158,
        "alt_km": 408.52170861652576,
        "timestamp": "2025-12-10T14:53:35.947101+00:00",
        "meta_object_name": "STARLINK-35980",
        "meta_object_id": "2025-270N",
        "meta_epoch": "2025-12-10T06:00:02.000160",
        "meta_mean_motion": 15.52664646,
        "meta_eccentricity": 0.00013409,
        "meta_inclination": 43,
        "meta_ra_of_asc_node": 207.2441,
        "meta_arg_of_pericenter": 258.5379,
        "meta_mean_anomaly": 275.6983,
        "meta_ephemeris_type": 0,
        "meta_classification_type": "U",
        "meta_norad_cat_id": 66600,
        "meta_element_set_no": 999,
        "meta_rev_at_epoch": 390,
        "meta_bstar": -0.038585291,
        "meta_mean_motion_dot": -0.02160083,
        "meta_mean_motion_ddot": 0,
        "tle_line1": "1 66600U 25270N   25344.25002315 -.02160083  00000+0 -38585-1 0  9991",
        "tle_line2": "2 66600  43.0000 207.2441 0001340 258.5379 275.6983 15.52664646  3901"
      },
      "geometry": {
        "type": "Point",
        "coordinates": [
          -69.4920433704158,
          42.88878467179799
        ]
      }
    }
  ]
}